OBJECT_NAME,OBJECT_ID,EPOCH,MEAN_MOTION,ECCENTRICITY,INCLINATION,RA_OF_ASC_NODE,ARG_OF_PERICENTER,MEAN_ANOMALY,EPHEMERIS_TYPE,CLASSIFICATION_TYPE,NORAD_CAT_ID,ELEMENT_SET_NO,REV_AT_EPOCH,BSTAR,MEAN_MOTION_DOT,MEAN_MOTION_DDOT
CUTE-1 (CO-55),2003-031E,2026-05-18T11:06:05.360256,14.24315714,.0008279,98.6745,147.3952,272.1724,87.8507,0,U,27844,999,18744,.96921E-4,.18E-5,0
CUBESAT XI-IV (CO-57),2003-031J,2026-05-18T07:05:37.507200,14.23603354,.000828,98.6776,146.9670,294.1039,65.9273,0,U,27848,999,18712,.81891E-4,.143E-5,0
CUBESAT XI-V,2005-043F,2026-05-18T08:51:58.792608,14.72544221,.0012904,98.2951,293.3724,302.7751,57.2212,0,U,28895,999,9736,.12888E-3,.767E-5,0
CUTE-1.7+APD II (CO-65),2008-021C,2026-05-18T11:32:52.345824,15.09142671,.0010464,97.8270,119.2925,123.6728,236.5499,0,U,32785,999,98071,.20951E-3,.3261E-4,0
CANX-2,2008-021H,2026-05-18T10:41:39.547968,15.05378381,.0011514,97.8621,117.6549,137.7182,222.4934,0,U,32790,999,98033,.12145E-3,.1678E-4,0
SEEDS II (CO-66),2008-021J,2026-05-18T11:39:38.658240,15.31646603,.0004796,97.7521,134.9926,73.5867,286.5900,0,U,32791,999,98274,.35357E-3,.10729E-3,0
SWISSCUBE,2009-051B,2026-05-18T11:23:49.087680,14.62417732,.0005824,98.4055,45.8443,315.1737,44.8993,0,U,35932,999,88481,.13059E-3,.611E-5,0
BEESAT-1,2009-051C,2026-05-18T11:15:17.186688,14.61666379,.0004643,98.3984,45.5356,334.4729,25.6242,0,U,35933,999,88484,.11221E-3,.509E-5,0
ITUPSAT1,2009-051E,2026-05-18T00:32:47.903424,14.60390489,.0007081,98.4069,44.3063,343.1047,16.9915,0,U,35935,999,88433,.11087E-3,.488E-5,0
TISAT 1,2010-035E,2026-05-18T07:34:09.695136,15.30476275,.0003053,98.0707,82.2475,43.0295,317.1182,0,U,36799,999,86313,.39518E-3,.11566E-3,0
AEROCUBE 4.5A,2012-048K,2026-05-18T09:43:43.125600,15.79194241,.0018475,64.6279,134.3990,216.1971,143.7934,0,U,38767,999,36793,.62899E-3,.115844E-2,0
STRAND-1,2013-009E,2026-05-18T11:11:51.724032,14.37144027,.0007877,98.3916,319.4339,327.0871,32.9824,0,U,39090,999,69279,.67098E-4,.157E-5,0
BRITE-AUSTRIA,2013-009F,2026-05-18T11:12:01.036224,14.36529149,.0009593,98.3987,318.6393,335.4928,24.5802,0,U,39091,999,69278,.47692E-4,.97E-6,0
NEE-01 PEGASO,2013-018B,2026-05-18T07:39:30.549312,14.93496678,.001135,98.1184,281.4928,261.1687,98.8246,0,U,39151,999,70624,.12358E-3,.124E-4,0
POPACS 2,2013-055E,2026-05-18T10:38:42.709632,14.90512798,.041859,80.9909,178.2246,289.4810,66.1638,0,U,39269,999,65878,.14539E-3,.8457E-4,0
POPACS 3,2013-055F,2026-05-18T01:59:23.175168,14.55366310,.0554786,81.0018,261.8052,161.5379,200.6875,0,U,39270,999,63417,.29389E-3,.12355E-3,0
ZACUBE-1 (TSHEPISOSAT),2013-066B,2026-05-18T03:26:34.670112,15.00938209,.0041199,97.8123,100.3176,353.8882,6.1833,0,U,39417,999,67622,.24772E-3,.3149E-4,0
WNISAT-1,2013-066H,2026-05-18T08:36:31.140000,14.58021448,.0162305,97.7165,289.6383,326.2807,32.8149,0,U,39423,999,66238,.6082E-4,.283E-5,0
TRITON-1,2013-066M,2026-05-18T12:19:00.493824,14.81567965,.0089571,97.8273,48.9961,332.1282,27.5147,0,U,39427,999,66969,.26328E-3,.2157E-4,0
GOMX-1,2013-066Q,2026-05-18T11:53:44.128032,14.69331278,.0128938,97.6499,340.8315,172.2054,188.1199,0,U,39430,999,66555,.21006E-3,.1358E-4,0
CUBEBUG-2 (LO-74),2013-066AA,2026-05-18T07:38:52.362240,14.93509749,.0059179,97.8896,87.1807,125.4535,235.2228,0,U,39440,999,67253,.17931E-3,.1892E-4,0
NEE-02 KRYSAOR,2013-066AB,2026-05-18T06:08:12.708096,14.86493459,.0066515,97.8885,77.6897,166.5510,193.7498,0,U,39441,999,67175,.11076E-3,.961E-5,0
FUNCUBE-1 (AO-73),2013-066AE,2026-05-18T11:42:05.724000,15.09070822,.0034897,97.8264,109.3260,306.8242,52.9786,0,U,39444,999,67518,.23785E-3,.3751E-4,0
UWE-3,2013-066AG,2026-05-18T08:02:55.811616,14.96744524,.0050467,97.8683,94.2190,60.1002,300.5219,0,U,39446,999,67311,.23287E-3,.2669E-4,0
BRITE-CA1 (TORONTO),2014-033L,2026-05-18T08:17:52.643616,14.72632260,.0078881,97.9697,267.8317,13.4870,346.8420,0,U,40020,999,63782,.66627E-4,.391E-5,0
DUCHIFAT-1,2014-033M,2026-05-18T10:00:54.601632,15.58929454,.0006136,98.0492,193.5387,172.4432,187.6916,0,U,40021,999,65110,.63298E-3,.49241E-3,0
NANOSATC-BR1,2014-033Q,2026-05-18T01:46:29.577216,15.30427931,.0001654,98.0738,167.8159,293.1752,66.9312,0,U,40024,999,64937,.38005E-3,.11102E-3,0
QB50P1,2014-033R,2026-05-18T11:41:49.710624,15.17758006,.0007786,98.0973,147.5624,338.9095,21.1814,0,U,40025,999,64852,.25945E-3,.5166E-4,0
QB50P2,2014-033Y,2026-05-18T10:38:42.299232,15.14741629,.0005645,98.0752,133.4836,278.7883,81.2708,0,U,40032,999,64816,.21967E-3,.3998E-4,0
PERSEUS-M2,2014-033AD,2026-05-18T11:43:56.143200,14.95414468,.0013288,97.9959,88.4300,43.8683,316.3589,0,U,40037,999,64634,.15523E-3,.1657E-4,0
