CUTE-1 (CO-55)          
1 27844U 03031E   26138.46256204  .00000180  00000+0  96921-4 0  9990
2 27844  98.6745 147.3952 0008279 272.1724  87.8507 14.24315714187449
CUBESAT XI-IV (CO-57)   
1 27848U 03031J   26138.29557300  .00000143  00000+0  81891-4 0  9995
2 27848  98.6776 146.9670 0008280 294.1039  65.9273 14.23603354187125
CUBESAT XI-V            
1 28895U 05043F   26138.36943047  .00000767  00000+0  12888-3 0  9999
2 28895  98.2951 293.3724 0012904 302.7751  57.2212 14.72544221 97365
CUTE-1.7+APD II (CO-65) 
1 32785U 08021C   26138.48116141  .00003261  00000+0  20951-3 0  9993
2 32785  97.8270 119.2925 0010464 123.6728 236.5499 15.09142671980712
CANX-2                  
1 32790U 08021H   26138.44559662  .00001678  00000+0  12145-3 0  9990
2 32790  97.8621 117.6549 0011514 137.7182 222.4934 15.05378381980330
SEEDS II (CO-66)        
1 32791U 08021J   26138.48586410  .00010729  00000+0  35357-3 0  9993
2 32791  97.7521 134.9926 0004796  73.5867 286.5900 15.31646603982746
SWISSCUBE               
1 35932U 09051B   26138.47487370  .00000611  00000+0  13059-3 0  9995
2 35932  98.4055  45.8443 0005824 315.1737  44.8993 14.62417732884812
BEESAT-1                
1 35933U 09051C   26138.46894892  .00000509  00000+0  11221-3 0  9991
2 35933  98.3984  45.5356 0004643 334.4729  25.6242 14.61666379884845
ITUPSAT1                
1 35935U 09051E   26138.02277666  .00000488  00000+0  11087-3 0  9995
2 35935  98.4069  44.3063 0007081 343.1047  16.9915 14.60390489884332
TISAT 1                 
1 36799U 10035E   26138.31538999  .00011566  00000+0  39518-3 0  9997
2 36799  98.0707  82.2475 0003053  43.0295 317.1182 15.30476275863133
AEROCUBE 4.5A           
1 38767U 12048K   26138.40536025  .00115844  00000+0  62899-3 0  9990
2 38767  64.6279 134.3990 0018475 216.1971 143.7934 15.79194241367930
STRAND-1                
1 39090U 13009E   26138.46657088  .00000157  00000+0  67098-4 0  9994
2 39090  98.3916 319.4339 0007877 327.0871  32.9824 14.37144027692792
BRITE-AUSTRIA           
1 39091U 13009F   26138.46667866  .00000097  00000+0  47692-4 0  9991
2 39091  98.3987 318.6393 0009593 335.4928  24.5802 14.36529149692788
NEE-01 PEGASO           
1 39151U 13018B   26138.31910358  .00001240  00000+0  12358-3 0  9990
2 39151  98.1184 281.4928 0011350 261.1687  98.8246 14.93496678706240
POPACS 2                
1 39269U 13055E   26138.44354988  .00008457  00000+0  14539-3 0  9996
2 39269  80.9909 178.2246 0418590 289.4810  66.1638 14.90512798658785
POPACS 3                
1 39270U 13055F   26138.08290712  .00012355  00000+0  29389-3 0  9993
2 39270  81.0018 261.8052 0554786 161.5379 200.6875 14.55366310634175
ZACUBE-1 (TSHEPISOSAT)  
1 39417U 13066B   26138.14345683  .00003149  00000+0  24772-3 0  9995
2 39417  97.8123 100.3176 0041199 353.8882   6.1833 15.00938209676226
WNISAT-1                
1 39423U 13066H   26138.35869375  .00000283  00000+0  60820-4 0  9995
2 39423  97.7165 289.6383 0162305 326.2807  32.8149 14.58021448662381
TRITON-1                
1 39427U 13066M   26138.51320016  .00002157  00000+0  26328-3 0  9997
2 39427  97.8273  48.9961 0089571 332.1282  27.5147 14.81567965669695
GOMX-1                  
1 39430U 13066Q   26138.49564963  .00001358  00000+0  21006-3 0  9999
2 39430  97.6499 340.8315 0128938 172.2054 188.1199 14.69331278665559
CUBEBUG-2 (LO-74)       
1 39440U 13066AA  26138.31866160  .00001892  00000+0  17931-3 0  9990
2 39440  97.8896  87.1807 0059179 125.4535 235.2228 14.93509749672534
NEE-02 KRYSAOR          
1 39441U 13066AB  26138.25570264  .00000961  00000+0  11076-3 0  9991
2 39441  97.8885  77.6897 0066515 166.5510 193.7498 14.86493459671759
FUNCUBE-1 (AO-73)       
1 39444U 13066AE  26138.48756625  .00003751  00000+0  23785-3 0  9996
2 39444  97.8264 109.3260 0034897 306.8242  52.9786 15.09070822675187
UWE-3                   
1 39446U 13066AG  26138.33536819  .00002669  00000+0  23287-3 0  9997
2 39446  97.8683  94.2190 0050467  60.1002 300.5219 14.96744524673119
BRITE-CA1 (TORONTO)     
1 40020U 14033L   26138.34574819  .00000391  00000+0  66627-4 0  9991
2 40020  97.9697 267.8317 0078881  13.4870 346.8420 14.72632260637820
DUCHIFAT-1              
1 40021U 14033M   26138.41729863  .00049241  00000+0  63298-3 0  9998
2 40021  98.0492 193.5387 0006136 172.4432 187.6916 15.58929454651109
NANOSATC-BR1            
1 40024U 14033Q   26138.07395344  .00011102  00000+0  38005-3 0  9999
2 40024  98.0738 167.8159 0001654 293.1752  66.9312 15.30427931649370
QB50P1                  
1 40025U 14033R   26138.48738091  .00005166  00000+0  25945-3 0  9997
2 40025  98.0973 147.5624 0007786 338.9095  21.1814 15.17758006648525
QB50P2                  
1 40032U 14033Y   26138.44354513  .00003998  00000+0  21967-3 0  9995
2 40032  98.0752 133.4836 0005645 278.7883  81.2708 15.14741629648164
PERSEUS-M2              
1 40037U 14033AD  26138.48884425  .00001657  00000+0  15523-3 0  9995
2 40037  97.9959  88.4300 0013288  43.8683 316.3589 14.95414468646345
